ONEWEB-0053             
1 45157U 20008AC  23314.46542636 -.00000255  00000+0 -76712-3 0  9990
2 45157  87.8920 224.8955 0001873  72.6512 287.4821 13.10370548184293
ONEWEB-0054             
1 45158U 20008AD  23314.50119277  .00000148  00000+0  38655-3 0  9990
2 45158  87.8925 224.8744 0001777  72.4404 287.6917 13.10376313184414
ONEWEB-0056             
1 45159U 20008AE  23314.17625072 -.00000525  00000+0 -15409-2 0  9991
2 45159  87.8924 224.9337 0001886  68.5240 291.6088 13.10375595184525
ONEWEB-0057             
1 45160U 20008AF  23314.48816628 -.00000397  00000+0 -11745-2 0  9992
2 45160  87.8928 224.8664 0001843  66.1765 293.9556 13.10371420184463
ONEWEB-0058             
1 45161U 20008AG  23313.78811886 -.00000471  00000+0 -13851-2 0  9999
2 45161  87.8932 225.0528 0001780  72.2392 287.8930 13.10374624183955
ONEWEB-0059             
1 45162U 20008AH  23314.47192619  .00000130  00000+0  33488-3 0  9992
2 45162  87.8923 224.8874 0001826  69.6620 290.4703 13.10364465184683
ONEWEB-0062             
1 45163U 20008AJ  23314.49955625  .00000166  00000+0  44009-3 0  9999
2 45163  87.8927 224.8689 0001787  73.8486 286.2837 13.10376138184563
ONEWEB-0065             
1 45164U 20008AK  23314.17137528 -.00000570  00000+0 -16701-2 0  9997
2 45164  87.8929 224.9308 0001878  70.9930 289.1401 13.10373568184202
